#cP2023  2  8  0  0  0.00000000      96 ORBIT IGS20 HLM  IGS
## 2248 259200.00000000   900.00000000 59983 0.0000000000000
+   32   G01G02G03G04G05G06G07G08G09G10G11G12G13G14G15G16G17
+        G18G19G20G21G22G23G24G25G26G27G28G29G30G31G32  0  0
+          0  0  0  0  0  0  0  0  0  0  0  0  0  0  0  0  0
+          0  0  0  0  0  0  0  0  0  0  0  0  0  0  0  0  0
+          0  0  0  0  0  0  0  0  0  0  0  0  0  0  0  0  0
++         2  2  2  3  2  2  2  2  2  2  2  2  2  2  2  2  2
++         2  2  2  2  3  2  2  2  2  2  3  2  2  2  2  0  0
++         0  0  0  0  0  0  0  0  0  0  0  0  0  0  0  0  0
++         0  0  0  0  0  0  0  0  0  0  0  0  0  0  0  0  0
++         0  0  0  0  0  0  0  0  0  0  0  0  0  0  0  0  0
%c G  cc GPS ccc cccc cccc cccc cccc ccccc ccccc ccccc ccccc
%c cc cc ccc ccc cccc cccc cccc cccc ccccc ccccc ccccc ccccc
%f  1.2500000  1.025000000  0.00000000000  0.000000000000000
%f  0.0000000  0.000000000  0.00000000000  0.000000000000000
%i    0    0    0    0      0      0      0      0         0
%i    0    0    0    0      0      0      0      0         0
/* RAPID ORBIT COMBINATION FROM WEIGHTED AVERAGE OF:        
/* cod emr esa gfz grg jpl ngs sio usn whu                  
/* REFERENCED TO IGS TIME (IGST) AND TO WEIGHTED MEAN POLE: 
/* PCV:IGS20_2233 OL/AL:FES2014b NONE     Y  ORB:CMB CLK:CMB
*  2023  2  8 11 15  0.00000000
PG01 -15092.128921   -720.245070  21573.174755    214.889273  6  7  1  86       
PG02  14177.014573  -4366.899107 -21396.865813   -622.230634  6  5  4 112       
PG03 -20614.352756   9140.677802  13821.735967   -365.479930  7  4  5  64       
PG04 -24913.882575    655.752412  -9335.363233    -31.955777  9  4  3  99       
PG05  14814.229817   5463.088561 -21541.073062   -115.114191  6  7  2 123       
PG06   4926.454736  25603.130340   4863.725189    569.878500  5  6  4  93       
PG07  -9729.363033  14636.014509 -19332.524321    244.801439  9  5  5 122       
PG08 -25847.670084  -6496.980197  -2615.311569   -107.527782 10  5  7  92       
PG09 -17656.961648   9379.328207 -17583.112721   -222.050418  8  4  4 115       
PG10   8374.358205 -21947.879565  12256.340472    -23.832140  4     2  89       
PG11  12185.087469  22040.518474  -8480.287362    -98.751739  9  7  5  78       
PG12  20975.951274  -6330.675726  14660.949455   -337.841091  6  6     70       
PG13  21534.719054  13543.450980  -8148.461162    472.725715  6  3  4 117       
PG14 -11216.137504  21937.147402   9757.356383    -31.963194  7  5  6  85       
PG15  26330.563651   3820.224080  -2791.173257     11.632086  8  4  3  74       
PG16 -12503.564079  -9060.870840 -21941.771649   -520.968099  7  4  4 105       
PG17  -4375.917036  14439.859308  22294.800675    698.680323  5  3  5 105       
PG18   7318.952450 -17929.637243 -18109.041435   -132.051959  3  5  5 114       
PG19   7895.927603  16271.829491  19314.910656    274.920194  5  3  4 101       
PG20   7158.343712  15828.309345 -20114.956241    452.000468  6  4  2 108       
PG21 -17878.939623  -9165.415354  18354.809052    153.868739  8  5  6  94       
PG22 -11184.023904 -16437.464772  18127.919223    422.791614  7  4  6  97       
PG23  16398.030926 -20762.554461   1134.848875      5.294158  4  7  4  95       
PG24  17463.045530   4502.487084  19276.223751    -64.943094  7  4  4  89       
PG25  20164.957607 -15267.668346   7318.823052    418.329268  7  5  2  46       
PG26  -2209.408657 -19118.644809 -18271.601534    241.296083  3  2  4 118       
PG27 -19848.622960 -12904.880949 -12685.022385    107.344073  9  7  7  99       
PG28  -4503.946829 -25320.534603   6611.788285      3.398736  7  5  6  86       
PG29  20537.944087  -5368.258719 -16057.682311   -584.980805 10  7  7 111       
PG30  -1109.827417  23833.732199 -11296.596256   -530.975896  5  6  6  89       
PG31  -5951.457755 -25485.138123   2542.550942   -208.662418  8  2  4 112       
PG32    153.360266 -15497.599966  21749.056149   -389.758799  5  6  2  77       
*  2023  2  8 11 30  0.00000000
PG01 -15880.590889  -3071.691788  20828.720719    214.885390  7  6  2 110       
PG02  15215.588129  -2023.633905 -21020.391419   -622.228266  6  5  4 114       
PG03 -19636.627232   7712.010825  15945.157273   -365.476199  7  4  5  79       
PG04 -25763.567584    250.248046  -6682.034227    -31.948543  9  4  4  93       
PG05  13354.855868   7427.745539 -21896.809868   -115.115336  6  7  3 115       
PG06   4522.353507  24996.018644   7660.346925    569.882712  5  6  4  96       
PG07 -10668.056049  12452.122056 -20362.637372    244.794908  9  5  5 114       
PG08 -25373.035239  -6651.910804  -5399.394576   -107.529190 10  5  7  99       
PG09 -19505.858280   8932.671227 -15763.853313   -222.044177  8  4  4 102       
PG10   9319.328017 -22778.813067   9740.289872    -23.833743  5  3  4  97       
PG11  12209.454448  22887.667878  -5776.291717    -98.760701  9  7  5  82       
PG12  19832.159396  -4878.221497  16645.637406   -337.845438  6  6  1  86       
PG13  20475.162125  13406.590223 -10732.705964    472.731332  5  2  4 116       
PG14 -12066.365959  22480.744383   7144.881230    -31.955414  8  4  6  83       
PG15  25895.897286   4110.648124  -5520.351481     11.634827  9  4  4  94       
PG16 -10769.722534 -10791.085171 -22038.881543   -520.966661  7  4  4 110       
PG17  -6747.471609  13867.993979  22069.031792    698.682530  6  3  5  89       
PG18   8141.258392 -15930.316402 -19580.064598   -132.066055  4  6  6 112       
PG19   5649.523447  15717.788458  20487.291840    274.924545  4  2  4 100       
PG20   5929.997805  17703.975031 -18936.905453    451.997996  7  4  2 100       
PG21 -18585.527386 -10900.960513  16634.379456    153.868546  8  5  5 103       
PG22  -9150.481339 -16025.719711  19597.793012    422.798559  7  5  6  80       
PG23  16560.318002 -20589.878675  -1751.699783      5.295492  5  7  5 101       
PG24  18264.960826   6548.451881  17962.542021    -64.957606  7  4  4  82       
PG25  19728.023994 -14289.562690   9936.097809    418.332177  7  6  2  68       
PG26   -867.592464 -20613.114503 -16648.604122    241.296381  4  1  4 122       
PG27 -18317.929982 -12796.809614 -14904.795542    107.335853  9  7  7  95       
PG28  -3938.887025 -24565.773928   9271.051559      3.414407  6  4  6  75       
PG29  22154.719152  -4813.372024 -13945.621923   -584.982839  9  7  7 116       
PG30  -1865.991934  22562.783998 -13582.565557   -530.974785  5  6  6  96       
PG31  -5506.916854 -25133.080623   5363.684971   -208.663415  7  3  4 116       
PG32   2580.956597 -15104.200505  21856.008772   -389.769458  5  6  2  78       
*  2023  2  8 11 45  0.00000000
PG01 -16757.113480  -5272.906127  19718.138503    214.881389  7  5  3  83       
PG02  16341.654813    205.694726 -20259.661894   -622.225972  6  5  5 107       
PG03 -18603.745463   6049.754600  17790.574957   -365.472486  7  4  5  81       
PG04 -26330.357656    -65.373561  -3914.428952    -31.941321 10  4  5  70       
PG05  11990.775496   9483.980129 -21881.730307   -115.116619  5  6  3 108       
PG06   3962.551272  24127.670672  10324.709640    569.886987  5  6  5 105       
PG07 -11749.568425  10229.638424 -21025.417996    244.788981  9  5  5 121       
PG08 -24601.276808  -6805.547561  -8092.811500   -107.531757 10  4  7 102       
PG09 -21156.054420   8601.584687 -13675.215186   -222.037842  8  3  4  99       
PG10  10045.296193 -23420.968224   7054.886078    -23.835290  5  4  5  89       
PG11  12168.347783  23440.672050  -2973.053197    -98.769637  8  6  6  89       
PG12  18629.001802  -3206.417092  18336.891939   -337.849279  6  6  1  89       
PG13  19138.538764  13258.086961 -13135.605358    472.736712  4     4 114       
PG14 -12700.479782  22828.391884   4408.541232    -31.947650  8  4  6  77       
PG15  25177.762789   4425.555259  -8157.019930     11.637681 10  4  6 126       
PG16  -9134.731584 -12608.105126 -21766.768275   -520.965228  8  4  4 119       
PG17  -9102.357578  13437.044891  21478.668769    698.684715  6  3  6  97       
PG18   9126.341389 -13842.677076 -20712.726170   -132.080267  5  6  6 119       
PG19   3262.292078  15261.194867  21302.032206    274.929292  4  2  4 106       
PG20   4866.851346  19502.535970 -17434.196376    451.996130  7  3  2  90       
PG21 -19288.205747 -12416.275191  14647.968706    153.869082  8  5  5  89       
PG22  -6956.093019 -15695.562123  20743.706466    422.805316  7  5  7  75       
PG23  16545.678885 -20157.484161  -4607.829549      5.296789  6  7  6  77       
PG24  19082.793668   8401.831521  16335.557720    -64.972122  7  4  4  82       
PG25  19171.633997 -13054.293852  12377.396482    418.335075  6  6  2  74       
PG26    295.878703 -22003.767551 -14737.524390    241.296721  4  1  3 115       
PG27 -16550.495891 -12747.347471 -16876.533714    107.327578  9  7  7 112       
PG28  -3208.312034 -23578.087520  11770.580177      3.430074  5  4  5  62       
PG29  23551.488877  -4394.844976 -11595.100030   -584.984508  9  7  7  86       
PG30  -2776.946794  21102.664490 -15630.561152   -530.973707  6  5  6  87       
PG31  -4924.037139 -24509.720640   8089.544157   -208.664501  7  3  3  99       
PG32   5019.102127 -14839.206095  21592.438949   -389.780106  5  6  2  74       
EOF
